[{"OBJECT_NAME":"ONEWEB-0567","OBJECT_ID":"2023-004H","EPOCH":"2026-02-15T06:42:52.163424","MEAN_MOTION":13.18684959,"ECCENTRICITY":0.00021087,"INCLINATION":87.9225,"RA_OF_ASC_NODE":359.6822,"ARG_OF_PERICENTER":92.4564,"MEAN_ANOMALY":267.6809,"EPHEMERIS_TYPE":0,"CLASSIFICATION_TYPE":"U","NORAD_CAT_ID":55147,"ELEMENT_SET_NO":999,"REV_AT_EPOCH":15363,"BSTAR":-0.00012896633,"MEAN_MOTION_DOT":-3.8e-7,"MEAN_MOTION_DDOT":0},{"OBJECT_NAME":"ONEWEB-0569","OBJECT_ID":"2023-004J","EPOCH":"2026-02-15T06:37:54.380640","MEAN_MOTION":13.1346878,"ECCENTRICITY":0.00018464,"INCLINATION":87.9049,"RA_OF_ASC_NODE":344.4468,"ARG_OF_PERICENTER":108.8868,"MEAN_ANOMALY":251.2462,"EPHEMERIS_TYPE":0,"CLASSIFICATION_TYPE":"U","NORAD_CAT_ID":55148,"ELEMENT_SET_NO":999,"REV_AT_EPOCH":15417,"BSTAR":0.0010214892,"MEAN_MOTION_DOT":3.86e-6,"MEAN_MOTION_DDOT":0},{"OBJECT_NAME":"ONEWEB-0570","OBJECT_ID":"2023-004K","EPOCH":"2026-02-15T06:28:37.509312","MEAN_MOTION":13.18685254,"ECCENTRICITY":0.00023645,"INCLINATION":87.9221,"RA_OF_ASC_NODE":359.6826,"ARG_OF_PERICENTER":78.6237,"MEAN_ANOMALY":281.516,"EPHEMERIS_TYPE":0,"CLASSIFICATION_TYPE":"U","NORAD_CAT_ID":55149,"ELEMENT_SET_NO":999,"REV_AT_EPOCH":15362,"BSTAR":0.00013749244,"MEAN_MOTION_DOT":6.7e-7,"MEAN_MOTION_DDOT":0},{"OBJECT_NAME":"ONEWEB-0571","OBJECT_ID":"2023-004L","EPOCH":"2026-02-15T06:19:06.777696","MEAN_MOTION":13.18684278,"ECCENTRICITY":0.00026874,"INCLINATION":87.9222,"RA_OF_ASC_NODE":359.6826,"ARG_OF_PERICENTER":106.0538,"MEAN_ANOMALY":254.089,"EPHEMERIS_TYPE":0,"CLASSIFICATION_TYPE":"U","NORAD_CAT_ID":55150,"ELEMENT_SET_NO":999,"REV_AT_EPOCH":15363,"BSTAR":3.3578354e-5,"MEAN_MOTION_DOT":2.6e-7,"MEAN_MOTION_DDOT":0},{"OBJECT_NAME":"ONEWEB-0572","OBJECT_ID":"2023-004M","EPOCH":"2026-02-14T21:10:41.149344","MEAN_MOTION":13.17649171,"ECCENTRICITY":0.00020574,"INCLINATION":87.9112,"RA_OF_ASC_NODE":30.1605,"ARG_OF_PERICENTER":88.9251,"MEAN_ANOMALY":271.2116,"EPHEMERIS_TYPE":0,"CLASSIFICATION_TYPE":"U","NORAD_CAT_ID":55151,"ELEMENT_SET_NO":999,"REV_AT_EPOCH":15137,"BSTAR":0.00023142185,"MEAN_MOTION_DOT":1.03e-6,"MEAN_MOTION_DDOT":0},{"OBJECT_NAME":"ONEWEB-0573","OBJECT_ID":"2023-004N","EPOCH":"2026-02-15T06:09:37.439712","MEAN_MOTION":13.1868473,"ECCENTRICITY":0.00026329,"INCLINATION":87.9221,"RA_OF_ASC_NODE":359.6866,"ARG_OF_PERICENTER":90.0787,"MEAN_ANOMALY":270.0647,"EPHEMERIS_TYPE":0,"CLASSIFICATION_TYPE":"U","NORAD_CAT_ID":55152,"ELEMENT_SET_NO":999,"REV_AT_EPOCH":15362,"BSTAR":0.00012816406,"MEAN_MOTION_DOT":6.3e-7,"MEAN_MOTION_DDOT":0},{"OBJECT_NAME":"ONEWEB-0588","OBJECT_ID":"2023-004P","EPOCH":"2026-02-15T06:00:06.429024","MEAN_MOTION":13.18684442,"ECCENTRICITY":0.00022916,"INCLINATION":87.9225,"RA_OF_ASC_NODE":359.6877,"ARG_OF_PERICENTER":82.076,"MEAN_ANOMALY":278.0633,"EPHEMERIS_TYPE":0,"CLASSIFICATION_TYPE":"U","NORAD_CAT_ID":55153,"ELEMENT_SET_NO":999,"REV_AT_EPOCH":15362,"BSTAR":8.289283e-6,"MEAN_MOTION_DOT":1.6e-7,"MEAN_MOTION_DDOT":0},{"OBJECT_NAME":"ONEWEB-0598","OBJECT_ID":"2023-004Q","EPOCH":"2026-02-15T00:13:08.080320","MEAN_MOTION":13.11416224,"ECCENTRICITY":0.0002045,"INCLINATION":87.8823,"RA_OF_ASC_NODE":45.3772,"ARG_OF_PERICENTER":106.2917,"MEAN_ANOMALY":253.8436,"EPHEMERIS_TYPE":0,"CLASSIFICATION_TYPE":"U","NORAD_CAT_ID":55154,"ELEMENT_SET_NO":999,"REV_AT_EPOCH":14988,"BSTAR":-0.00050343938,"MEAN_MOTION_DOT":-1.66e-6,"MEAN_MOTION_DDOT":0},{"OBJECT_NAME":"ONEWEB-0599","OBJECT_ID":"2023-004R","EPOCH":"2026-02-14T23:53:29.694912","MEAN_MOTION":13.1764808,"ECCENTRICITY":0.00018094,"INCLINATION":87.9107,"RA_OF_ASC_NODE":30.1374,"ARG_OF_PERICENTER":91.1981,"MEAN_ANOMALY":268.9358,"EPHEMERIS_TYPE":0,"CLASSIFICATION_TYPE":"U","NORAD_CAT_ID":55155,"ELEMENT_SET_NO":999,"REV_AT_EPOCH":15139,"BSTAR":-0.00023898848,"MEAN_MOTION_DOT":-8.0e-7,"MEAN_MOTION_DDOT":0},{"OBJECT_NAME":"ONEWEB-0614","OBJECT_ID":"2023-004S","EPOCH":"2026-02-15T00:05:49.003296","MEAN_MOTION":13.11415913,"ECCENTRICITY":0.0002107,"INCLINATION":87.882,"RA_OF_ASC_NODE":45.3863,"ARG_OF_PERICENTER":79.8987,"MEAN_ANOMALY":280.2379,"EPHEMERIS_TYPE":0,"CLASSIFICATION_TYPE":"U","NORAD_CAT_ID":55156,"ELEMENT_SET_NO":999,"REV_AT_EPOCH":14982,"BSTAR":-0.00022178579,"MEAN_MOTION_DOT":-6.6e-7,"MEAN_MOTION_DDOT":0},{"OBJECT_NAME":"ONEWEB-0616","OBJECT_ID":"2023-004T","EPOCH":"2026-02-14T21:15:32.609376","MEAN_MOTION":13.17648438,"ECCENTRICITY":0.00010293,"INCLINATION":87.9124,"RA_OF_ASC_NODE":30.1562,"ARG_OF_PERICENTER":110.7184,"MEAN_ANOMALY":249.4058,"EPHEMERIS_TYPE":0,"CLASSIFICATION_TYPE":"U","NORAD_CAT_ID":55157,"ELEMENT_SET_NO":999,"REV_AT_EPOCH":15159,"BSTAR":6.170143e-5,"MEAN_MOTION_DOT":3.7e-7,"MEAN_MOTION_DDOT":0},{"OBJECT_NAME":"ONEWEB-0617","OBJECT_ID":"2023-004U","EPOCH":"2026-02-14T23:48:43.548480","MEAN_MOTION":13.11416952,"ECCENTRICITY":0.0002214,"INCLINATION":87.8831,"RA_OF_ASC_NODE":45.3708,"ARG_OF_PERICENTER":85.1204,"MEAN_ANOMALY":275.0177,"EPHEMERIS_TYPE":0,"CLASSIFICATION_TYPE":"U","NORAD_CAT_ID":55158,"ELEMENT_SET_NO":999,"REV_AT_EPOCH":14984,"BSTAR":0.0010575,"MEAN_MOTION_DOT":3.88e-6,"MEAN_MOTION_DDOT":0},{"OBJECT_NAME":"ONEWEB-0618","OBJECT_ID":"2023-004V","EPOCH":"2026-02-14T23:48:02.022048","MEAN_MOTION":15.11658224,"ECCENTRICITY":0.00142368,"INCLINATION":86.9029,"RA_OF_ASC_NODE":227.1864,"ARG_OF_PERICENTER":35.2977,"MEAN_ANOMALY":324.9202,"EPHEMERIS_TYPE":0,"CLASSIFICATION_TYPE":"U","NORAD_CAT_ID":55159,"ELEMENT_SET_NO":999,"REV_AT_EPOCH":16379,"BSTAR":0.00022233136,"MEAN_MOTION_DOT":3.82e-5,"MEAN_MOTION_DDOT":0},{"OBJECT_NAME":"ONEWEB-0619","OBJECT_ID":"2023-004W","EPOCH":"2026-02-14T23:51:03.760992","MEAN_MOTION":13.17646543,"ECCENTRICITY":0.00017368,"INCLINATION":87.9121,"RA_OF_ASC_NODE":30.1089,"ARG_OF_PERICENTER":72.0263,"MEAN_ANOMALY":288.1057,"EPHEMERIS_TYPE":0,"CLASSIFICATION_TYPE":"U","NORAD_CAT_ID":55160,"ELEMENT_SET_NO":999,"REV_AT_EPOCH":15150,"BSTAR":-0.00028547607,"MEAN_MOTION_DOT":-9.8e-7,"MEAN_MOTION_DDOT":0},{"OBJECT_NAME":"ONEWEB-0620","OBJECT_ID":"2023-004X","EPOCH":"2026-02-14T23:41:25.253376","MEAN_MOTION":13.11417137,"ECCENTRICITY":0.0002125,"INCLINATION":87.8822,"RA_OF_ASC_NODE":45.3893,"ARG_OF_PERICENTER":93.2302,"MEAN_ANOMALY":266.9069,"EPHEMERIS_TYPE":0,"CLASSIFICATION_TYPE":"U","NORAD_CAT_ID":55161,"ELEMENT_SET_NO":999,"REV_AT_EPOCH":14981,"BSTAR":0.0014854,"MEAN_MOTION_DOT":5.39e-6,"MEAN_MOTION_DDOT":0},{"OBJECT_NAME":"ONEWEB-0621","OBJECT_ID":"2023-004Y","EPOCH":"2026-02-15T00:20:28.009248","MEAN_MOTION":13.11415445,"ECCENTRICITY":0.00019793,"INCLINATION":87.8832,"RA_OF_ASC_NODE":45.3612,"ARG_OF_PERICENTER":82.9166,"MEAN_ANOMALY":277.2187,"EPHEMERIS_TYPE":0,"CLASSIFICATION_TYPE":"U","NORAD_CAT_ID":55162,"ELEMENT_SET_NO":999,"REV_AT_EPOCH":14979,"BSTAR":-0.0014147074,"MEAN_MOTION_DOT":-4.89e-6,"MEAN_MOTION_DDOT":0},{"OBJECT_NAME":"ONEWEB-0622","OBJECT_ID":"2023-004Z","EPOCH":"2026-02-15T00:27:46.997280","MEAN_MOTION":13.11416143,"ECCENTRICITY":0.0002613,"INCLINATION":87.8826,"RA_OF_ASC_NODE":45.364,"ARG_OF_PERICENTER":81.3185,"MEAN_ANOMALY":278.8239,"EPHEMERIS_TYPE":0,"CLASSIFICATION_TYPE":"U","NORAD_CAT_ID":55163,"ELEMENT_SET_NO":999,"REV_AT_EPOCH":14978,"BSTAR":-0.0015372604,"MEAN_MOTION_DOT":-5.32e-6,"MEAN_MOTION_DDOT":0},{"OBJECT_NAME":"ONEWEB-0623","OBJECT_ID":"2023-004AA","EPOCH":"2026-02-14T23:43:46.514784","MEAN_MOTION":13.17647124,"ECCENTRICITY":0.0002337,"INCLINATION":87.9104,"RA_OF_ASC_NODE":30.1545,"ARG_OF_PERICENTER":68.2163,"MEAN_ANOMALY":291.9217,"EPHEMERIS_TYPE":0,"CLASSIFICATION_TYPE":"U","NORAD_CAT_ID":55164,"ELEMENT_SET_NO":999,"REV_AT_EPOCH":15149,"BSTAR":-7.8248e-5,"MEAN_MOTION_DOT":-1.7e-7,"MEAN_MOTION_DDOT":0},{"OBJECT_NAME":"ONEWEB-0624","OBJECT_ID":"2023-004AB","EPOCH":"2026-02-14T21:06:04.285728","MEAN_MOTION":13.12924626,"ECCENTRICITY":0.00020527,"INCLINATION":87.8962,"RA_OF_ASC_NODE":14.8826,"ARG_OF_PERICENTER":78.5244,"MEAN_ANOMALY":281.6115,"EPHEMERIS_TYPE":0,"CLASSIFICATION_TYPE":"U","NORAD_CAT_ID":55165,"ELEMENT_SET_NO":999,"REV_AT_EPOCH":15202,"BSTAR":6.6604506e-5,"MEAN_MOTION_DOT":3.7e-7,"MEAN_MOTION_DDOT":0},{"OBJECT_NAME":"ONEWEB-0625","OBJECT_ID":"2023-004AC","EPOCH":"2026-02-14T23:29:12.115680","MEAN_MOTION":13.1764754,"ECCENTRICITY":0.0001702,"INCLINATION":87.9107,"RA_OF_ASC_NODE":30.15,"ARG_OF_PERICENTER":85.2686,"MEAN_ANOMALY":274.8639,"EPHEMERIS_TYPE":0,"CLASSIFICATION_TYPE":"U","NORAD_CAT_ID":55166,"ELEMENT_SET_NO":999,"REV_AT_EPOCH":15148,"BSTAR":-0.00014667,"MEAN_MOTION_DOT":-4.4e-7,"MEAN_MOTION_DDOT":0},{"OBJECT_NAME":"ONEWEB-0626","OBJECT_ID":"2023-004AD","EPOCH":"2026-02-14T21:25:15.700512","MEAN_MOTION":13.17647676,"ECCENTRICITY":0.00021555,"INCLINATION":87.9107,"RA_OF_ASC_NODE":30.1672,"ARG_OF_PERICENTER":100.0019,"MEAN_ANOMALY":260.1356,"EPHEMERIS_TYPE":0,"CLASSIFICATION_TYPE":"U","NORAD_CAT_ID":55167,"ELEMENT_SET_NO":999,"REV_AT_EPOCH":15147,"BSTAR":-7.5114617e-5,"MEAN_MOTION_DOT":-1.6e-7,"MEAN_MOTION_DDOT":0},{"OBJECT_NAME":"ONEWEB-0627","OBJECT_ID":"2023-004AE","EPOCH":"2026-02-14T22:57:36.188640","MEAN_MOTION":13.17649745,"ECCENTRICITY":0.00023212,"INCLINATION":87.9109,"RA_OF_ASC_NODE":30.1542,"ARG_OF_PERICENTER":73.0446,"MEAN_ANOMALY":287.0939,"EPHEMERIS_TYPE":0,"CLASSIFICATION_TYPE":"U","NORAD_CAT_ID":55168,"ELEMENT_SET_NO":999,"REV_AT_EPOCH":15148,"BSTAR":8.8639996e-5,"MEAN_MOTION_DOT":4.7e-7,"MEAN_MOTION_DDOT":0},{"OBJECT_NAME":"ONEWEB-0628","OBJECT_ID":"2023-004AF","EPOCH":"2026-02-15T06:33:15.311232","MEAN_MOTION":13.12444122,"ECCENTRICITY":0.00021436,"INCLINATION":87.8975,"RA_OF_ASC_NODE":14.8472,"ARG_OF_PERICENTER":64.4595,"MEAN_ANOMALY":295.6755,"EPHEMERIS_TYPE":0,"CLASSIFICATION_TYPE":"U","NORAD_CAT_ID":55169,"ELEMENT_SET_NO":999,"REV_AT_EPOCH":15204,"BSTAR":0.00089146034,"MEAN_MOTION_DOT":3.33e-6,"MEAN_MOTION_DDOT":0}]
